{
  "type": "FeatureCollection",
  "features": [
    {
      "type": "Feature",
      "properties": {
        "norad_id": 29922,
        "name": "FENGYUN 1C DEB",
        "group": "fengyun-1c-debris",
        "lat": -6.620109905563915,
        "lon": 51.47814155703098,
        "alt_km": 834.9382236619103,
        "timestamp": "2025-12-18T23:35:49.332620+00:00",
        "meta_object_name": "FENGYUN 1C DEB",
        "meta_object_id": "1999-025HU",
        "meta_epoch": "2025-12-18T03:01:30.421056",
        "meta_mean_motion": 13.98582023,
        "meta_eccentricity": 0.00928782,
        "meta_inclination": 99.1347,
        "meta_ra_of_asc_node": 49.5545,
        "meta_arg_of_pericenter": 352.1218,
        "meta_mean_anomaly": 7.8481,
        "meta_ephemeris_type": 0,
        "meta_classification_type": "U",
        "meta_norad_cat_id": 29922,
        "meta_element_set_no": 999,
        "meta_rev_at_epoch": 96516,
        "meta_bstar": 4.181665e-05,
        "meta_mean_motion_dot": 1.7e-07,
        "meta_mean_motion_ddot": 0,
        "tle_line1": "1 29922U 99025HU  25352.12604654  .00000017  00000+0  41817-4 0  9996",
        "tle_line2": "2 29922  99.1347  49.5545 0092878 352.1218   7.8481 13.98582023965163"
      },
      "geometry": {
        "type": "Point",
        "coordinates": [
          51.47814155703098,
          -6.620109905563915
        ]
      }
    },
    {
      "type": "Feature",
      "properties": {
        "norad_id": 29923,
        "name": "FENGYUN 1C DEB",
        "group": "fengyun-1c-debris",
        "lat": 1.564644793776744,
        "lon": -178.66125850978128,
        "alt_km": 837.21087791214,
        "timestamp": "2025-12-18T23:35:49.332630+00:00",
        "meta_object_name": "FENGYUN 1C DEB",
        "meta_object_id": "1999-025HV",
        "meta_epoch": "2025-12-18T07:32:16.906848",
        "meta_mean_motion": 14.1390259,
        "meta_eccentricity": 0.00178341,
        "meta_inclination": 98.6878,
        "meta_ra_of_asc_node": 0.4492,
        "meta_arg_of_pericenter": 153.6775,
        "meta_mean_anomaly": 220.5588,
        "meta_ephemeris_type": 0,
        "meta_classification_type": "U",
        "meta_norad_cat_id": 29923,
        "meta_element_set_no": 999,
        "meta_rev_at_epoch": 97354,
        "meta_bstar": 0.00040436159,
        "meta_mean_motion_dot": 7.25e-06,
        "meta_mean_motion_ddot": 0,
        "tle_line1": "1 29923U 99025HV  25352.31408457  .00000725  00000+0  40436-3 0  9992",
        "tle_line2": "2 29923  98.6878   0.4492 0017834 153.6775 220.5588 14.13902590973541"
      },
      "geometry": {
        "type": "Point",
        "coordinates": [
          -178.66125850978128,
          1.564644793776744
        ]
      }
    },
    {
      "type": "Feature",
      "properties": {
        "norad_id": 29924,
        "name": "FENGYUN 1C DEB",
        "group": "fengyun-1c-debris",
        "lat": 39.48942466018801,
        "lon": -1.530497162479387,
        "alt_km": 877.8467423877637,
        "timestamp": "2025-12-18T23:35:49.332641+00:00",
        "meta_object_name": "FENGYUN 1C DEB",
        "meta_object_id": "1999-025HW",
        "meta_epoch": "2025-12-18T12:12:29.462976",
        "meta_mean_motion": 14.08891637,
        "meta_eccentricity": 0.00259991,
        "meta_inclination": 98.7339,
        "meta_ra_of_asc_node": 5.2871,
        "meta_arg_of_pericenter": 240.7664,
        "meta_mean_anomaly": 273.7569,
        "meta_ephemeris_type": 0,
        "meta_classification_type": "U",
        "meta_norad_cat_id": 29924,
        "meta_element_set_no": 999,
        "meta_rev_at_epoch": 97289,
        "meta_bstar": 0.00012414451,
        "meta_mean_motion_dot": 1.72e-06,
        "meta_mean_motion_ddot": 0,
        "tle_line1": "1 29924U 99025HW  25352.50867434  .00000172  00000+0  12414-3 0  9999",
        "tle_line2": "2 29924  98.7339   5.2871 0025999 240.7664 273.7569 14.08891637972894"
      },
      "geometry": {
        "type": "Point",
        "coordinates": [
          -1.530497162479387,
          39.48942466018801
        ]
      }
    },
    {
      "type": "Feature",
      "properties": {
        "norad_id": 29926,
        "name": "FENGYUN 1C DEB",
        "group": "fengyun-1c-debris",
        "lat": 78.38421441165596,
        "lon": -153.24117453857986,
        "alt_km": 950.2792753134554,
        "timestamp": "2025-12-18T23:35:49.332651+00:00",
        "meta_object_name": "FENGYUN 1C DEB",
        "meta_object_id": "1999-025HY",
        "meta_epoch": "2025-12-18T10:27:52.316352",
        "meta_mean_motion": 14.33408758,
        "meta_eccentricity": 0.02480265,
        "meta_inclination": 98.284,
        "meta_ra_of_asc_node": 341.0996,
        "meta_arg_of_pericenter": 283.1711,
        "meta_mean_anomaly": 232.8033,
        "meta_ephemeris_type": 0,
        "meta_classification_type": "U",
        "meta_norad_cat_id": 29926,
        "meta_element_set_no": 999,
        "meta_rev_at_epoch": 98662,
        "meta_bstar": 0.00027391765,
        "meta_mean_motion_dot": 1.012e-05,
        "meta_mean_motion_ddot": 0,
        "tle_line1": "1 29926U 99025HY  25352.43602218  .00001012  00000+0  27392-3 0  9995",
        "tle_line2": "2 29926  98.2840 341.0996 0248026 283.1711 232.8033 14.33408758986623"
      },
      "geometry": {
        "type": "Point",
        "coordinates": [
          -153.24117453857986,
          78.38421441165596
        ]
      }
    },
    {
      "type": "Feature",
      "properties": {
        "norad_id": 29927,
        "name": "FENGYUN 1C DEB",
        "group": "fengyun-1c-debris",
        "lat": 71.19965523543559,
        "lon": -10.344574788171602,
        "alt_km": 644.739748624087,
        "timestamp": "2025-12-18T23:35:49.332662+00:00",
        "meta_object_name": "FENGYUN 1C DEB",
        "meta_object_id": "1999-025HZ",
        "meta_epoch": "2025-12-18T00:36:17.134848",
        "meta_mean_motion": 14.74757585,
        "meta_eccentricity": 0.00179269,
        "meta_inclination": 99.0835,
        "meta_ra_of_asc_node": 16.6127,
        "meta_arg_of_pericenter": 194.0972,
        "meta_mean_anomaly": 196.3138,
        "meta_ephemeris_type": 0,
        "meta_classification_type": "U",
        "meta_norad_cat_id": 29927,
        "meta_element_set_no": 999,
        "meta_rev_at_epoch": 98725,
        "meta_bstar": 0.0022574561,
        "meta_mean_motion_dot": 0.00015108,
        "meta_mean_motion_ddot": 0,
        "tle_line1": "1 29927U 99025HZ  25352.02519832  .00015108  00000+0  22575-2 0  9998",
        "tle_line2": "2 29927  99.0835  16.6127 0017926 194.0972 196.3138 14.74757585987250"
      },
      "geometry": {
        "type": "Point",
        "coordinates": [
          -10.344574788171602,
          71.19965523543559
        ]
      }
    },
    {
      "type": "Feature",
      "properties": {
        "norad_id": 29928,
        "name": "FENGYUN 1C DEB",
        "group": "fengyun-1c-debris",
        "lat": 38.921793899421665,
        "lon": 9.574196027815013,
        "alt_km": 859.8326535360002,
        "timestamp": "2025-12-18T23:35:49.332672+00:00",
        "meta_object_name": "FENGYUN 1C DEB",
        "meta_object_id": "1999-025JA",
        "meta_epoch": "2025-12-18T13:44:38.808096",
        "meta_mean_motion": 13.88094078,
        "meta_eccentricity": 0.01432382,
        "meta_inclination": 99.5839,
        "meta_ra_of_asc_node": 16.9943,
        "meta_arg_of_pericenter": 87.6135,
        "meta_mean_anomaly": 62.8134,
        "meta_ephemeris_type": 0,
        "meta_classification_type": "U",
        "meta_norad_cat_id": 29928,
        "meta_element_set_no": 999,
        "meta_rev_at_epoch": 95572,
        "meta_bstar": 0.00054018137,
        "meta_mean_motion_dot": 6.53e-06,
        "meta_mean_motion_ddot": 0,
        "tle_line1": "1 29928U 99025JA  25352.57267139  .00000653  00000+0  54018-3 0  9996",
        "tle_line2": "2 29928  99.5839  16.9943 0143238  87.6135  62.8134 13.88094078955728"
      },
      "geometry": {
        "type": "Point",
        "coordinates": [
          9.574196027815013,
          38.921793899421665
        ]
      }
    },
    {
      "type": "Feature",
      "properties": {
        "norad_id": 29929,
        "name": "FENGYUN 1C DEB",
        "group": "fengyun-1c-debris",
        "lat": -22.655332039301832,
        "lon": 88.25479752578535,
        "alt_km": 825.1506887815403,
        "timestamp": "2025-12-18T23:35:49.332682+00:00",
        "meta_object_name": "FENGYUN 1C DEB",
        "meta_object_id": "1999-025JB",
        "meta_epoch": "2025-12-18T06:13:39.927360",
        "meta_mean_motion": 14.01376573,
        "meta_eccentricity": 0.013146,
        "meta_inclination": 98.6244,
        "meta_ra_of_asc_node": 271.2026,
        "meta_arg_of_pericenter": 160.7256,
        "meta_mean_anomaly": 351.9399,
        "meta_ephemeris_type": 0,
        "meta_classification_type": "U",
        "meta_norad_cat_id": 29929,
        "meta_element_set_no": 999,
        "meta_rev_at_epoch": 96033,
        "meta_bstar": 0.00077711271,
        "meta_mean_motion_dot": 1.223e-05,
        "meta_mean_motion_ddot": 0,
        "tle_line1": "1 29929U 99025JB  25352.25948990  .00001223  00000+0  77711-3 0  9992",
        "tle_line2": "2 29929  98.6244 271.2026 0131460 160.7256 351.9399 14.01376573960335"
      },
      "geometry": {
        "type": "Point",
        "coordinates": [
          88.25479752578535,
          -22.655332039301832
        ]
      }
    }
  ]
}